     2.10           G: GLONASS NAV DATA                     RINEX VERSION / TYPE
teqc  2015Jun23                         20220303 01:25:41UTCPGM / RUN BY / DATE
Linux 2.4.21-27.ELsmp|Opteron|gcc -static|Linux x86_64|=+   COMMENT
  2022     2     7   -0.000000000000D+00                    CORR TO SYSTEM TIME
                                                            END OF HEADER
20 22  2  8 20 15  0.0-6.456766277552D-05-0.000000000000D+00 7.200000000000D+04
   -7.909908691406D+03 3.178234100342D-01-9.313225746155D-10 0.000000000000D+00
    2.421418164062D+04-1.569290161133D-01 9.313225746155D-10 2.000000000000D+00
   -1.738623535156D+03-3.600353240967D+00-0.000000000000D+00 0.000000000000D+00
21 22  2  8 20 15  0.0-2.765040844679D-04-2.728484105319D-12 7.200000000000D+04
    2.701185058594D+03-4.136772155762D-01 0.000000000000D+00 0.000000000000D+00
    1.918409326172D+04 2.242529869080D+00 0.000000000000D+00 4.000000000000D+00
    1.658687402344D+04-2.528723716736D+00-9.313225746155D-10 0.000000000000D+00
 6 22  2  8 20 15  0.0-3.157183527946D-05-1.818989403546D-12 7.203000000000D+04
    3.468301269531D+03-1.916184425354D+00 0.000000000000D+00 0.000000000000D+00
    1.599639843750D+04-1.874424934387D+00 0.000000000000D+00-4.000000000000D+00
    1.956427587891D+04 1.869015693665D+00-9.313225746155D-10 0.000000000000D+00
 7 22  2  8 20 45  0.0 3.146659582853D-05 9.094947017729D-13 7.380000000000D+04
    1.427031787109D+04-1.201781272888D+00 0.000000000000D+00 0.000000000000D+00
    1.759815234375D+04-1.078952789307D+00-0.000000000000D+00 5.000000000000D+00
    1.180689453125D+04 3.065949440002D+00-0.000000000000D+00 0.000000000000D+00
19 22  2  8 20 45  0.0-1.774635165930D-04-9.094947017729D-13 7.380000000000D+04
   -1.092118896484D+04 5.413036346436D-01-1.862645149231D-09 0.000000000000D+00
    6.438387695312D+03-2.989589691162D+00 9.313225746155D-10 3.000000000000D+00
   -2.212950146484D+04-1.136458396912D+00 9.313225746155D-10 0.000000000000D+00
 6 22  2  8 20 45  0.0-3.157556056976D-05-1.818989403546D-12 7.380000000000D+04
   -4.887866210938D+02-2.454162597656D+00 9.313225746155D-10 0.000000000000D+00
    1.267005859375D+04-1.779241561890D+00 0.000000000000D+00-4.000000000000D+00
    2.212869238281D+04 9.617662429810D-01-1.862645149231D-09 0.000000000000D+00
 9 22  2  8 20 45  0.0 3.844965249300D-05 2.728484105319D-12 7.380000000000D+04
   -1.413159228516D+04-1.870451927185D+00-1.862645149231D-09 0.000000000000D+00
    1.475497656250D+04 9.451360702515D-01 9.313225746155D-10-2.000000000000D+00
   -1.530635937500D+04 2.629267692566D+00-0.000000000000D+00 0.000000000000D+00
20 22  2  8 20 45  0.0-6.456859409809D-05-0.000000000000D+00 7.380000000000D+04
   -7.213675781250D+03 4.123897552490D-01-1.862645149231D-09 0.000000000000D+00
    2.311995751953D+04-1.056981086731D+00 9.313225746155D-10 2.000000000000D+00
   -8.068691894531D+03-3.387477874756D+00-0.000000000000D+00 0.000000000000D+00
21 22  2  8 20 45  0.0-2.765068784356D-04-2.728484105319D-12 7.380000000000D+04
    2.362596679688D+03 1.044940948486D-02-0.000000000000D+00 0.000000000000D+00
    2.266222265625D+04 1.583810806274D+00 0.000000000000D+00 4.000000000000D+00
    1.145239599609D+04-3.139224052429D+00-9.313225746155D-10 0.000000000000D+00
10 22  2  8 20 45  0.0-7.962994277477D-05-0.000000000000D+00 7.443000000000D+04
    1.882992187500D+03-2.843741416931D+00-1.862645149231D-09 0.000000000000D+00
    1.117055078125D+04 1.299922943115D+00 9.313225746155D-10-7.000000000000D+00
   -2.286305615234D+04 4.083480834961D-01 9.313225746155D-10 0.000000000000D+00
 7 22  2  8 21 15  0.0 3.146845847368D-05 9.094947017729D-13 7.560000000000D+04
    1.143152343750D+04-1.942680358887D+00 0.000000000000D+00 0.000000000000D+00
    1.549018798828D+04-1.218886375427D+00-0.000000000000D+00 5.000000000000D+00
    1.680041650391D+04 2.446601867676D+00-9.313225746155D-10 0.000000000000D+00
10 22  2  8 21 15  0.0-7.962994277477D-05-0.000000000000D+00 7.560000000000D+04
   -2.909571289062D+03-2.442083358765D+00-1.862645149231D-09 0.000000000000D+00
    1.379212304688D+04 1.580445289612D+00 9.313225746155D-10-7.000000000000D+00
   -2.125419726562D+04 1.367905616760D+00 9.313225746155D-10 0.000000000000D+00
 9 22  2  8 21 15  0.0 3.845430910587D-05 2.728484105319D-12 7.560000000000D+04
   -1.682329003906D+04-1.111055374146D+00-1.862645149231D-09 0.000000000000D+00
    1.637727294922D+04 8.150997161865D-01 9.313225746155D-10-2.000000000000D+00
   -1.004449902344D+04 3.179305076599D+00-0.000000000000D+00 0.000000000000D+00
20 22  2  8 21 15  0.0-6.456859409809D-05-0.000000000000D+00 7.560000000000D+04
   -6.577992187500D+03 2.540359497070D-01-1.862645149231D-09 0.000000000000D+00
    2.045229150391D+04-1.885284423828D+00 9.313225746155D-10 2.000000000000D+00
   -1.377620898438D+04-2.913052558899D+00 0.000000000000D+00 0.000000000000D+00
21 22  2  8 21 15  0.0-2.765124663711D-04-2.728484105319D-12 7.560000000000D+04
    2.618848144531D+03 2.359151840210D-01-0.000000000000D+00 0.000000000000D+00
    2.477588427734D+04 7.428512573242D-01 9.313225746155D-10 4.000000000000D+00
    5.431693847656D+03-3.506980895996D+00-9.313225746155D-10 0.000000000000D+00
 7 22  2  8 21 45  0.0 3.146566450596D-05 9.094947017729D-13 7.740000000000D+04
    7.345206542969D+03-2.569841384888D+00 9.313225746155D-10 0.000000000000D+00
    1.336354394531D+04-1.104644775391D+00-0.000000000000D+00 5.000000000000D+00
    2.050154150391D+04 1.639199256897D+00-1.862645149231D-09 0.000000000000D+00
10 22  2  8 21 45  0.0-7.963087409735D-05-0.000000000000D+00 7.740000000000D+04
   -6.792604980469D+03-1.848189353943D+00-1.862645149231D-09 0.000000000000D+00
    1.672250195312D+04 1.632805824280D+00 9.313225746155D-10-7.000000000000D+00
   -1.800143554688D+04 2.222990036011D+00 0.000000000000D+00 0.000000000000D+00
 9 22  2  8 21 45  0.0 3.845896571875D-05 2.728484105319D-12 7.740000000000D+04
   -1.813189697266D+04-3.523540496826D-01-9.313225746155D-10 0.000000000000D+00
    1.753900195312D+04 4.359922409058D-01 9.313225746155D-10-2.000000000000D+00
   -4.008463378906D+03 3.483974456787D+00-9.313225746155D-10 0.000000000000D+00
20 22  2  8 21 45  0.0-6.457045674324D-05-0.000000000000D+00 7.740000000000D+04
   -6.425759277344D+03-1.140327453613D-01-1.862645149231D-09 0.000000000000D+00
    1.644326269531D+04-2.530634880066D+00 9.313225746155D-10 2.000000000000D+00
   -1.842015087891D+04-2.213327407837D+00 0.000000000000D+00 0.000000000000D+00
21 22  2  8 21 45  0.0-2.765180543065D-04-2.728484105319D-12 7.740000000000D+04
    3.063386230469D+03 2.154178619385D-01-9.313225746155D-10 0.000000000000D+00
    2.529279833984D+04-1.705503463745D-01 9.313225746155D-10 4.000000000000D+00
   -1.009460449219D+03-3.603326797485D+00-0.000000000000D+00 0.000000000000D+00
22 22  2  8 21 45  0.0-1.634797081351D-04-1.818989403546D-12 7.755000000000D+04
    9.028345214844D+03 4.582166671753D-01 0.000000000000D+00 0.000000000000D+00
    1.894479394531D+04 1.952649116516D+00 0.000000000000D+00-3.000000000000D+00
    1.456689648438D+04-2.812449455261D+00-9.313225746155D-10 0.000000000000D+00
 7 22  2  8 22 15  0.0 3.146659582853D-05 0.000000000000D+00 7.920000000000D+04
    2.307813964844D+03-2.985170364380D+00 9.313225746155D-10 0.000000000000D+00
    1.163659570312D+04-7.863464355469D-01-0.000000000000D+00 5.000000000000D+00
    2.262558789062D+04 7.055444717407D-01-1.862645149231D-09 0.000000000000D+00
10 22  2  8 22 15  0.0-7.963273674250D-05-0.000000000000D+00 7.920000000000D+04
   -9.508227539062D+03-1.163286209106D+00-9.313225746155D-10 0.000000000000D+00
    1.950788378906D+04 1.416117668152D+00 1.862645149231D-09-7.000000000000D+00
   -1.335436425781D+04 2.906961441040D+00-0.000000000000D+00 0.000000000000D+00
 9 22  2  8 22 15  0.0 3.846362233162D-05 2.728484105319D-12 7.920000000000D+04
   -1.815655029297D+04 2.990989685059D-01-0.000000000000D+00 0.000000000000D+00
    1.781883496094D+04-1.551723480225D-01 9.313225746155D-10-2.000000000000D+00
    2.336335449219D+03 3.520212173462D+00-1.862645149231D-09 0.000000000000D+00
20 22  2  8 22 15  0.0-6.457138806581D-05-0.000000000000D+00 7.920000000000D+04
   -7.065843261719D+03-6.101503372192D-01-1.862645149231D-09 0.000000000000D+00
    1.150291064453D+04-2.909194946289D+00 1.862645149231D-09 2.000000000000D+00
   -2.164095166016D+04-1.341991424561D+00 9.313225746155D-10 0.000000000000D+00
21 22  2  8 22 15  0.0-2.765236422420D-04-2.728484105319D-12 7.920000000000D+04
    3.244685058594D+03-5.296516418457D-02-9.313225746155D-10 0.000000000000D+00
    2.419109326172D+04-1.035591125488D+00 1.862645149231D-09 4.000000000000D+00
   -7.372447265625D+03-3.420681953430D+00-0.000000000000D+00 0.000000000000D+00
22 22  2  8 22 15  0.0-1.634825021029D-04-1.818989403546D-12 7.920000000000D+04
    9.971348632812D+03 5.482988357544D-01-0.000000000000D+00 0.000000000000D+00
    2.173739062500D+04 1.130837440491D+00 9.313225746155D-10-3.000000000000D+00
    9.009124023438D+03-3.322866439819D+00-9.313225746155D-10 0.000000000000D+00
10 22  2  8 22 45  0.0-7.963366806507D-05-0.000000000000D+00 8.100000000000D+04
   -1.099316406250D+04-4.993305206299D-01-9.313225746155D-10 0.000000000000D+00
    2.166043896484D+04 9.341487884521D-01 1.862645149231D-09-7.000000000000D+00
   -7.671588867188D+03 3.366160392761D+00-9.313225746155D-10 0.000000000000D+00
 9 22  2  8 22 45  0.0 3.846734762192D-05 2.728484105319D-12 8.100000000000D+04
   -1.717129589844D+04 7.581453323364D-01-0.000000000000D+00 0.000000000000D+00
    1.689761914062D+04-8.833856582642D-01 9.313225746155D-10-2.000000000000D+00
    8.501282714844D+03 3.285449028015D+00-1.862645149231D-09 0.000000000000D+00
21 22  2  8 22 45  0.0-2.765292301774D-04-2.728484105319D-12 8.100000000000D+04
    2.749543457031D+03-5.253162384033D-01-9.313225746155D-10 0.000000000000D+00
    2.166163623047D+04-1.739923477173D+00 1.862645149231D-09 4.000000000000D+00
   -1.316458935547D+04-2.973188400269D+00 0.000000000000D+00 0.000000000000D+00
